[
    {
        "Altitude(m)": 612502.1925778966,
        "Argument of Periapsis(deg)": 0.0,
        "Eccentricity": 0.0,
        "Inclination(deg)": 60.0,
        "Latitude(deg)": -28.135966576184934,
        "Longitude(deg)": 62.148279133662925,
        "Mean Anomaly(deg)": -32.72730000000006,
        "RAAN(deg)": 180.0,
        "Satellite Name": "Test1 812",
        "Satellite Number": 812,
        "Semi-Major Axis(m)": 6980739.136638005,
        "Time(s)": 0
    },
    {
        "Altitude(m)": 612308.640385175,
        "Argument of Periapsis(deg)": 0.00010418945913296404,
        "Eccentricity": 0.0,
        "Inclination(deg)": 60.0,
        "Latitude(deg)": -27.623021534150016,
        "Longitude(deg)": 62.501752623912914,
        "Mean Anomaly(deg)": -32.10719385453821,
        "RAAN(deg)": 179.99957995086024,
        "Satellite Name": "Test1 812",
        "Satellite Number": 812,
        "Semi-Major Axis(m)": 6980739.136638005,
        "Time(s)": 10
    }
]